NORAD_CAT_ID,OBJECT_NAME,OBJECT_TYPE,EPOCH,MEAN_MOTION,ECCENTRICITY,INCLINATION,RA_OF_ASC_NODE,ARG_OF_PERICENTER,MEAN_ANOMALY,BSTAR,MEAN_MOTION_DOT,MEAN_MOTION_DDOT,TLE_LINE0,TLE_LINE1,TLE_LINE2,SEMIMAJOR_AXIS,PERIOD,APOGEE,PERIGEE,DECAYED
53794.0,STARLINK-4730,PAYLOAD,2024-07-18 09:14:34,15.08833485,0.0001418,53.2175,84.3573,102.6391,257.476,-3.67e-05,-8.72e-06,0.0,0 STARLINK-4730,1 53794U 22111X   24200.38512126 -.00000872  00000-0 -36700-4 0  9990,2 53794  53.2175  84.3573 0001418 102.6391 257.4760 15.08833485102413,6917.9,95.438,540.746,538.784,0.0
53794.0,STARLINK-4730,PAYLOAD,2024-07-18 21:57:39,15.0884215,0.000117,53.215,81.9749,84.4679,275.6447,-2.4189e-05,-6.73e-06,0.0,0 STARLINK-4730,1 53794U 22111X   24200.91503877 -.00000673  00000-0 -24189-4 0  9999,2 53794  53.2150  81.9749 0001170  84.4679 275.6447 15.08842150103295,6917.874,95.437,540.548,538.929,0.0
53794.0,STARLINK-4730,PAYLOAD,2024-07-19 02:43:48,15.08851637,0.0001155,53.2154,81.0796,78.9076,281.2046,0.00020128,2.918e-05,0.0,0 STARLINK-4730,1 53794U 22111X   24201.11375260  .00002918  00000-0  20128-3 0  9995,2 53794  53.2154  81.0796 0001155  78.9076 281.2046 15.08851637102527,6917.845,95.437,540.509,538.911,0.0
53794.0,STARLINK-4730,PAYLOAD,2024-07-19 20:13:03,15.08836566,0.0001544,53.2167,77.8046,62.3158,297.7991,0.00023455,3.447e-05,0.0,0 STARLINK-4730,1 53794U 22111X   24201.84240425  .00003447  00000-0  23455-3 0  9993,2 53794  53.2167  77.8046 0001544  62.3158 297.7991 15.08836566102639,6917.891,95.438,540.824,538.688,0.0
53794.0,STARLINK-4730,PAYLOAD,2024-07-19 21:48:26,15.08841987,0.0001489,53.2162,77.513,61.1609,298.9532,0.00012621,1.721e-05,0.0,0 STARLINK-4730,1 53794U 22111X   24201.90864163  .00001721  00000-0  12621-3 0  9997,2 53794  53.2162  77.5130 0001489  61.1609 298.9532 15.08841987103448,6917.874,95.437,540.769,538.709,0.0
53794.0,STARLINK-4730,PAYLOAD,2024-07-19 23:23:49,15.08853744,0.0001066,53.2158,77.217,96.9422,263.1691,0.0003321,5.003e-05,0.0,0 STARLINK-4730,1 53794U 22111X   24201.97487410  .00005003  00000-0  33210-3 0  9994,2 53794  53.2158  77.2170 0001066  96.9422 263.1691 15.08853744102650,6917.838,95.437,540.441,538.966,0.0
53794.0,STARLINK-4730,PAYLOAD,2024-07-20 08:56:08,15.08842484,0.0001183,53.2168,75.4294,77.0813,283.0311,2.0672e-05,4.1e-07,0.0,0 STARLINK-4730,1 53794U 22111X   24202.37231802  .00000041  00000-0  20672-4 0  9997,2 53794  53.2168  75.4294 0001183  77.0813 283.0311 15.08842484102718,6917.873,95.437,540.556,538.919,0.0
53794.0,STARLINK-4730,PAYLOAD,2024-07-20 21:39:13,15.08847456,0.0001283,53.2169,73.0508,89.3443,270.7696,8.1569e-06,-1.58e-06,0.0,0 STARLINK-4730,1 53794U 22111X   24202.90224062 -.00000158  00000-0  81569-5 0  9999,2 53794  53.2169  73.0508 0001283  89.3443 270.7696 15.08847456103597,6917.858,95.437,540.61,538.835,0.0
53794.0,STARLINK-4730,PAYLOAD,2024-07-20 23:14:35,15.08859552,0.0001432,53.218,72.7483,65.9399,294.1742,0.00016358,2.318e-05,0.0,0 STARLINK-4730,1 53794U 22111X   24202.96847024  .00002318  00000-0  16358-3 0  9995,2 53794  53.2180  72.7483 0001432  65.9399 294.1742 15.08859552102809,6917.821,95.436,540.676,538.695,0.0
53794.0,STARLINK-4730,PAYLOAD,2024-07-21 19:54:36,15.08859794,0.0001076,53.2163,68.891,112.1771,247.9335,5.0854e-05,5.22e-06,0.0,0 STARLINK-4730,1 53794U 22111X   24203.82958645  .00000522  00000-0  50854-4 0  9998,2 53794  53.2163  68.8910 0001076 112.1771 247.9335 15.08859794102930,6917.82,95.436,540.429,538.941,0.0
53794.0,STARLINK-4730,PAYLOAD,2024-07-21 21:29:59,15.08861543,0.0001752,53.217,68.5916,56.3085,303.8074,7.8845e-05,9.68e-06,0.0,0 STARLINK-4730,1 53794U 22111X   24203.89582747  .00000968  00000-0  78845-4 0  9995,2 53794  53.2170  68.5916 0001752  56.3085 303.8074 15.08861543103746,6917.815,95.436,540.892,538.468,0.0
53794.0,STARLINK-4730,PAYLOAD,2024-07-22 14:59:14,15.08845365,0.0001445,53.2168,65.3186,105.978,254.1371,0.00012145,1.646e-05,0.0,0 STARLINK-4730,1 53794U 22111X   24204.62447260  .00001646  00000-0  12145-3 0  9991,2 53794  53.2168  65.3186 0001445 105.9780 254.1371 15.08845365103853,6917.864,95.437,540.729,538.729,0.0
53794.0,STARLINK-4730,PAYLOAD,2024-07-24 13:05:26,15.08829095,0.0001186,53.2168,56.695,118.8796,241.2315,-8.2522e-05,-1.6e-05,0.0,0 STARLINK-4730,1 53794U 22111X   24206.54544721 -.00001600  00000-0 -82522-4 0  9993,2 53794  53.2168  56.6950 0001186 118.8796 241.2315 15.08829095103348,6917.914,95.438,540.599,538.958,0.0
53794.0,STARLINK-4730,PAYLOAD,2024-07-26 00:03:55,15.08841471,9.79e-05,53.2177,50.1562,86.4018,273.7086,3.4571e-05,2.63e-06,0.0,0 STARLINK-4730,1 53794U 22111X   24208.00272265  .00000263  00000-0  34571-4 0  9990,2 53794  53.2177  50.1562 0000979  86.4018 273.7086 15.08841471103563,6917.876,95.437,540.418,539.064,0.0
53794.0,STARLINK-4730,PAYLOAD,2024-07-26 22:19:19,15.08846195,0.0001739,53.2109,45.9927,73.1132,287.005,0.00015487,2.178e-05,0.0,0 STARLINK-4730,1 53794U 22111X   24208.93008265  .00002178  00000-0  15487-3 0  9990,2 53794  53.2109  45.9927 0001739  73.1132 287.0050 15.08846195104502,6917.861,95.437,540.929,538.523,0.0
53794.0,STARLINK-4730,PAYLOAD,2024-07-27 06:16:15,15.08846004,0.0001115,53.2166,44.5068,81.6112,278.5007,-6.5092e-05,-1.324e-05,0.0,0 STARLINK-4730,1 53794U 22111X   24209.26129128 -.00001324  00000-0 -65092-4 0  9991,2 53794  53.2166  44.5068 0001115  81.6112 278.5007 15.08846004103758,6917.862,95.437,540.498,538.956,0.0
53794.0,STARLINK-4730,PAYLOAD,2024-07-27 20:34:44,15.08838785,0.0001211,53.2173,41.8281,87.3399,272.7732,-2.0535e-05,-6.15e-06,0.0,0 STARLINK-4730,1 53794U 22111X   24209.85745384 -.00000615  00000-0 -20535-4 0  9999,2 53794  53.2173  41.8281 0001211  87.3399 272.7732 15.08838785104647,6917.884,95.438,540.587,538.911,0.0
53794.0,STARLINK-4730,PAYLOAD,2024-07-28 18:50:07,15.08853556,0.0001312,53.2181,37.6665,86.7223,273.3919,-6.3025e-06,-3.88e-06,0.0,0 STARLINK-4730,1 53794U 22111X   24210.78480534 -.00000388  00000-0 -63025-5 0  9995,2 53794  53.2181  37.6665 0001312  86.7223 273.3919 15.08853556103989,6917.839,95.437,540.612,538.796,0.0
53794.0,STARLINK-4730,PAYLOAD,2024-07-29 20:16:17,15.08846551,0.0001375,53.2181,32.9078,87.2837,272.8312,0.00019734,2.855e-05,0.0,0 STARLINK-4730,1 53794U 22111X   24211.84464535  .00002855  00000-0  19734-3 0  9991,2 53794  53.2181  32.9078 0001375  87.2837 272.8312 15.08846551104148,6917.86,95.437,540.677,538.774,0.0
53794.0,STARLINK-4730,PAYLOAD,2024-07-30 12:10:09,15.08853185,0.0001776,53.2192,29.9305,105.1868,254.9321,-0.00029507,-4.983e-05,0.0,0 STARLINK-4730,1 53794U 22111X   24212.50705121 -.00004983  00000-0 -29507-3 0  9999,2 53794  53.2192  29.9305 0001776 105.1868 254.9321 15.08853185104241,6917.84,95.437,540.934,538.476,0.0
53794.0,STARLINK-4730,PAYLOAD,2024-07-30 18:31:42,15.08830823,0.000159,53.2188,28.7459,81.6907,278.4265,-1.1721e-05,-4.74e-06,0.0,0 STARLINK-4730,1 53794U 22111X   24212.77202482 -.00000474  00000-0 -11721-4 0  9991,2 53794  53.2188  28.7459 0001590  81.6907 278.4265 15.08830823104285,6917.908,95.438,540.873,538.673,0.0
53794.0,STARLINK-4730,PAYLOAD,2024-07-31 19:57:52,15.08856037,0.0001498,53.2178,23.9858,76.2501,283.8658,0.00024565,3.625e-05,0.0,0 STARLINK-4730,1 53794U 22111X   24213.83185200  .00003625  00000-0  24565-3 0  9995,2 53794  53.2178  23.9858 0001498  76.2501 283.8658 15.08856037105249,6917.831,95.437,540.733,538.66,0.0
53794.0,STARLINK-4730,PAYLOAD,2024-08-01 03:54:48,15.08848556,0.0001495,53.2175,22.4978,76.0252,284.0907,0.00036564,5.537e-05,0.0,0 STARLINK-4730,1 53794U 22111X   24214.16305629  .00005537  00000-0  36564-3 0  9997,2 53794  53.2175  22.4978 0001495  76.0252 284.0907 15.08848556104494,6917.854,95.437,540.753,538.685,0.0
53794.0,STARLINK-4730,PAYLOAD,2024-08-01 11:51:43,15.08847726,0.0001576,53.2172,21.0129,79.8199,280.2971,0.00036202,5.479e-05,0.0,0 STARLINK-4730,1 53794U 22111X   24214.49425537  .00005479  00000-0  36202-3 0  9998,2 53794  53.2172  21.0129 0001576  79.8199 280.2971 15.08847726105347,6917.857,95.437,540.812,538.632,0.0
53794.0,STARLINK-4730,PAYLOAD,2024-08-01 21:24:01,15.08867969,0.000137,53.2153,19.2266,76.1575,283.9569,0.00054779,8.447e-05,0.0,0 STARLINK-4730,1 53794U 22111X   24214.89168305  .00008447  00000-0  54779-3 0  9996,2 53794  53.2153  19.2266 0001370  76.1575 283.9569 15.08867969104609,6917.795,95.436,540.608,538.712,0.0
53794.0,STARLINK-4730,PAYLOAD,2024-08-02 10:07:07,15.08833352,0.0001672,53.2173,16.8497,67.6956,292.4213,-0.00028931,-4.889e-05,0.0,0 STARLINK-4730,1 53794U 22111X   24215.42161645 -.00004889  00000-0 -28931-3 0  9995,2 53794  53.2173  16.8497 0001672  67.6956 292.4213 15.08833352104681,6917.901,95.438,540.922,538.609,0.0
53794.0,STARLINK-4730,PAYLOAD,2024-08-02 14:53:16,15.08836009,0.0001818,53.2171,15.9577,87.7357,272.3843,-0.00022266,-3.83e-05,0.0,0 STARLINK-4730,1 53794U 22111X   24215.62033499 -.00003830  00000-0 -22266-3 0  9992,2 53794  53.2171  15.9577 0001818  87.7357 272.3843 15.08836009105519,6917.893,95.438,541.015,538.5,0.0
53794.0,STARLINK-4730,PAYLOAD,2024-08-02 19:39:26,15.08842655,0.0001674,53.2173,15.0659,88.503,271.6154,-4.3669e-05,-9.83e-06,0.0,0 STARLINK-4730,1 53794U 22111X   24215.81905260 -.00000983  00000-0 -43669-4 0  9994,2 53794  53.2173  15.0659 0001674  88.5030 271.6154 15.08842655104745,6917.872,95.437,540.895,538.579,0.0
53794.0,STARLINK-4730,PAYLOAD,2024-08-03 14:44:04,15.0884072,0.0001676,53.2171,11.4975,91.665,268.4534,0.00019243,2.776e-05,0.0,0 STARLINK-4730,1 53794U 22111X   24216.61393589  .00002776  00000-0  19243-3 0  9998,2 53794  53.2171  11.4975 0001676  91.6650 268.4534 15.08840720105668,6917.878,95.438,540.903,538.584,0.0
53794.0,STARLINK-4730,PAYLOAD,2024-08-03 19:30:13,15.0884358,0.0001685,53.2165,10.6048,91.8798,268.2387,0.00053108,8.175e-05,0.0,0 STARLINK-4730,1 53794U 22111X   24216.81265729  .00008175  00000-0  53108-3 0  9991,2 53794  53.2165  10.6048 0001685  91.8798 268.2387 15.08843580105692,6917.869,95.437,540.9,538.569,0.0
